IRIDIUM 57              
1 25273U 98019B   24183.22938385  .00000697  00000+0  23681-3 0  9998
2 25273  86.3959 292.2387 0002185  94.9131 265.2315 14.35265906374646
IRIDIUM 63              
1 25286U 98021B   24182.82950544  .00000694  00000+0  23327-3 0  9995
2 25286  86.3987 229.3058 0002215  88.8825 271.2625 14.35816199373414
IRIDIUM 69              
1 25319U 98026A   24182.92737727  .00000854  00000+0  26466-3 0  9999
2 25319  86.3974 243.6094 0004625  97.9461 262.2263 14.40059463372494
IRIDIUM 71              
1 25320U 98026B   24182.64654851  .00000734  00000+0  22520-3 0  9990
2 25320  86.3976 238.4862 0003588 128.5447 231.6074 14.40368982372977
IRIDIUM 73              
1 25344U 98032C   24182.75268644  .00001016  00000+0  25398-3 0  9996
2 25344  86.4438 195.8697 0002974  93.2284 266.9261 14.50601234379599
IRIDIUM 82              
1 25467U 98051A   24183.51816374  .00022273  00000+0  11018-2 0  9998
2 25467  86.3758 278.9699 0126841 167.2009 193.2503 15.10797777370655
